OSCAR-7
1 07530U 74089B   02304.63819206 -.00000029  00000-0  10000-3 0  1254
2 07530 101.7807 348.3803 0012176 290.4631  69.5135 12.53560987279410
OSCAR-10
1 14129U 83058B   02307.06784561  .00000192  00000-0  10000-3 0  9019
2 14129  25.7492 182.3855 6066273 298.8572  13.9944  2.05865971117856
OSCAR-11
1 14781U 84021B   02307.90112120  .00002795  00000-0  39893-3 0  9813
2 14781  98.1022 276.1436 0008901 186.8058 173.3033 14.77518316   483
OSCAR-14
1 20437U 90005B   02307.53484691  .00000269  00000-0  11748-3 0   860
2 20437  98.2892 351.1800 0010719 154.8974 205.2734 14.31180809667186
PACSAT
1 20439U 90005D   02307.21746674  .00000336  00000-0  14215-3 0  8055
2 20439  98.3344   1.9236 0010996 162.8450 197.3107 14.31403211667178
LUSAT
1 20442U 90005G   02308.17351319  .00000363  00000-0  15173-3 0  8877
2 20442  98.3637   8.5979 0011750 158.8598 201.3073 14.31648238667416
OSCAR-20
1 20480U 90013C   02307.50445221  .00000020  00000-0  12370-3 0  4388
2 20480  99.0271 285.4585 0539689 246.3739 107.9827 12.83325348596783
OSCAR-22
1 21575U 91050B   02307.92120076  .00000650  00000-0  22357-3 0  6422
2 21575  98.1332 300.4844 0008592  94.0683 266.1491 14.39038994592943
OSCAR-25
1 22828U 93061F   02307.59988344  .00000272  00000-0  12242-3 0  3442
2 22828  98.2857 339.0217 0009265 190.4346 169.6643 14.29452927442849
ITAMSAT
1 22826U 93061D   02305.14320246  .00000300  00000-0  13463-3 0  2650
2 22826  98.2907 336.4221 0008173 220.0929 139.9649 14.29100162474294
OSCAR-27
1 22825U 93061C   02307.89703925  .00000292  00000-0  13194-3 0  4059
2 22825  98.2871 337.9767 0007771 209.5851 150.4893 14.28884792474648
OSCAR-29
1 24278U 96046B   02307.00997595  .00000060  00000-0  93990-4 0  5361
2 24278  98.5283 107.9086 0351258 135.2474 227.7581 13.52860657306768
OSCAR-40
1 26609U 00072B   02307.80394616 -.00000240  00000-0  10000-3 0  2771
2 26609   7.7263  84.4541 7932158 107.6114 345.3976  1.25597995  9245
OSCAR-41
1 26545U 00057A   02304.78777365  .00002519  00000-0  35371-3 0  3671
2 26545  64.5614   9.2331 0058098 256.0484 103.4171 14.78527702112999
RS-12/13
1 21089U 91007A   02307.88849803  .00000137  00000-0  12901-3 0  4652
2 21089  82.9184 260.5196 0027631 222.0329 137.8712 13.74388716589135
RS-15
1 23439U 94085A   02305.82318932 -.00000026  00000-0  47086-3 0  6582
2 23439  64.8164 217.3304 0149558 136.2619 225.0263 11.27547652323336
PCSAT
1 26931U 01043C   02305.20674041  .00000431  00000-0  20263-3 0  3171
2 26931  67.0494 177.1371 0006555 250.8930 109.1461 14.29019842 56720
NOAA-14
1 23455U 94089A   02307.99571090  .00000323  00000-0  19719-3 0  4028
2 23455  99.1926 318.7477 0009515 164.5746 195.5717 14.13238348404423
NOAA-15
1 25338U 98030A   02307.95256156  .00000372  00000-0  18023-3 0  8811
2 25338  98.5600 327.9670 0009617 268.9468  91.0609 14.24173230232628
NOAA-17
1 27453U 02032A   02307.98889451  .00000477  00000-0  23072-3 0  1809
2 27453  98.7720  14.6795 0011351 308.8822  51.1343 14.23198881 18809
UARS
1 21701U 91063B   02308.05761313  .00001753  00000-0  14981-3 0  7449
2 21701  56.9792 103.0601 0006446  87.5535 272.6263 15.02522346609705
HUBBLE
1 20580U 90037B   02308.25258634  .00005989  00000-0  49247-3 0  2029
2 20580  28.4679   8.4471 0004533 216.9728 205.9008 14.97174149486680
ISS
1 25544U 98067A   02308.14064815  .00048747  00000-0  63867-3 0  3359
2 25544  51.6392  70.2511 0014481 101.3348 254.4034 15.57965107225795
STARSHINE 3
1 26929U 01043A   02307.57019970  .00151634  00000-0  11047-2 0  5144
2 26929  67.0349 317.7441 0001868 236.7138 123.4159 15.72645385 61849
